CCSDS_OMM_VERS = 2.0
CREATION_DATE  = 
ORIGINATOR     = 

OBJECT_NAME    = STARLINK-35593
OBJECT_ID      = 2025-236X
CENTER_NAME    = EARTH
REF_FRAME      = TEME
TIME_SYSTEM    = UTC
MEAN_ELEMENT_THEORY = SGP/SGP4

EPOCH          = 2025-11-13T22:00:03.000096
MEAN_MOTION    = 15.52481471
ECCENTRICITY   = .00013451
INCLINATION    = 53.1596
RA_OF_ASC_NODE = 283.5414
ARG_OF_PERICENTER = 110.4785
MEAN_ANOMALY   = 201.2624

EPHEMERIS_TYPE = 0
CLASSIFICATION_TYPE = U
NORAD_CAT_ID   = 66107
ELEMENT_SET_NO = 999
REV_AT_EPOCH   = 524
BSTAR          = -.35664408E-1
MEAN_MOTION_DOT = -.1987465E-1
MEAN_MOTION_DDOT = 0

CCSDS_OMM_VERS = 2.0
CREATION_DATE  = 
ORIGINATOR     = 

OBJECT_NAME    = STARLINK-35590
OBJECT_ID      = 2025-236Y
CENTER_NAME    = EARTH
REF_FRAME      = TEME
TIME_SYSTEM    = UTC
MEAN_ELEMENT_THEORY = SGP/SGP4

EPOCH          = 2025-11-13T22:00:03.000096
MEAN_MOTION    = 15.52478457
ECCENTRICITY   = .00013486
INCLINATION    = 53.1596
RA_OF_ASC_NODE = 283.5329
ARG_OF_PERICENTER = 102.1047
MEAN_ANOMALY   = 213.4699

EPHEMERIS_TYPE = 0
CLASSIFICATION_TYPE = U
NORAD_CAT_ID   = 66108
ELEMENT_SET_NO = 999
REV_AT_EPOCH   = 518
BSTAR          = -.35499504E-1
MEAN_MOTION_DOT = -.1979041E-1
MEAN_MOTION_DDOT = 0

CCSDS_OMM_VERS = 2.0
CREATION_DATE  = 
ORIGINATOR     = 

OBJECT_NAME    = STARLINK-35545
OBJECT_ID      = 2025-236Z
CENTER_NAME    = EARTH
REF_FRAME      = TEME
TIME_SYSTEM    = UTC
MEAN_ELEMENT_THEORY = SGP/SGP4

EPOCH          = 2025-11-13T22:00:03.000096
MEAN_MOTION    = 15.52483824
ECCENTRICITY   = .00013196
INCLINATION    = 53.1595
RA_OF_ASC_NODE = 283.5372
ARG_OF_PERICENTER = 106.1458
MEAN_ANOMALY   = 207.5106

EPHEMERIS_TYPE = 0
CLASSIFICATION_TYPE = U
NORAD_CAT_ID   = 66109
ELEMENT_SET_NO = 999
REV_AT_EPOCH   = 524
BSTAR          = -.35724276E-1
MEAN_MOTION_DOT = -.199059E-1
MEAN_MOTION_DDOT = 0

CCSDS_OMM_VERS = 2.0
CREATION_DATE  = 
ORIGINATOR     = 

OBJECT_NAME    = STARLINK-35427
OBJECT_ID      = 2025-236AA
CENTER_NAME    = EARTH
REF_FRAME      = TEME
TIME_SYSTEM    = UTC
MEAN_ELEMENT_THEORY = SGP/SGP4

EPOCH          = 2025-11-13T22:00:03.000096
MEAN_MOTION    = 15.52478111
ECCENTRICITY   = .00013315
INCLINATION    = 53.1594
RA_OF_ASC_NODE = 283.5284
ARG_OF_PERICENTER = 107.1268
MEAN_ANOMALY   = 210.3658

EPHEMERIS_TYPE = 0
CLASSIFICATION_TYPE = U
NORAD_CAT_ID   = 66110
ELEMENT_SET_NO = 999
REV_AT_EPOCH   = 524
BSTAR          = -.35525447E-1
MEAN_MOTION_DOT = -.1980304E-1
MEAN_MOTION_DDOT = 0

CCSDS_OMM_VERS = 2.0
CREATION_DATE  = 
ORIGINATOR     = 

OBJECT_NAME    = STARLINK-35574
OBJECT_ID      = 2025-236AB
CENTER_NAME    = EARTH
REF_FRAME      = TEME
TIME_SYSTEM    = UTC
MEAN_ELEMENT_THEORY = SGP/SGP4

EPOCH          = 2025-11-13T22:00:03.000096
MEAN_MOTION    = 15.52478388
ECCENTRICITY   = .00013105
INCLINATION    = 53.1594
RA_OF_ASC_NODE = 283.5248
ARG_OF_PERICENTER = 102.4370
MEAN_ANOMALY   = 216.9721

EPHEMERIS_TYPE = 0
CLASSIFICATION_TYPE = U
NORAD_CAT_ID   = 66111
ELEMENT_SET_NO = 999
REV_AT_EPOCH   = 518
BSTAR          = -.35532633E-1
MEAN_MOTION_DOT = -.1980669E-1
MEAN_MOTION_DDOT = 0

CCSDS_OMM_VERS = 2.0
CREATION_DATE  = 
ORIGINATOR     = 

OBJECT_NAME    = STARLINK-35531
OBJECT_ID      = 2025-236AC
CENTER_NAME    = EARTH
REF_FRAME      = TEME
TIME_SYSTEM    = UTC
MEAN_ELEMENT_THEORY = SGP/SGP4

EPOCH          = 2025-11-13T22:00:03.000096
MEAN_MOTION    = 15.52493651
ECCENTRICITY   = .00012823
INCLINATION    = 53.1600
RA_OF_ASC_NODE = 283.5168
ARG_OF_PERICENTER = 110.2685
MEAN_ANOMALY   = 212.9711

EPHEMERIS_TYPE = 0
CLASSIFICATION_TYPE = U
NORAD_CAT_ID   = 66112
ELEMENT_SET_NO = 999
REV_AT_EPOCH   = 524
BSTAR          = -.36185912E-1
MEAN_MOTION_DOT = -.2014205E-1
MEAN_MOTION_DDOT = 0

CCSDS_OMM_VERS = 2.0
CREATION_DATE  = 
ORIGINATOR     = 

OBJECT_NAME    = STARLINK-35491
OBJECT_ID      = 2025-236AD
CENTER_NAME    = EARTH
REF_FRAME      = TEME
TIME_SYSTEM    = UTC
MEAN_ELEMENT_THEORY = SGP/SGP4

EPOCH          = 2025-11-13T22:00:03.000096
MEAN_MOTION    = 15.52475936
ECCENTRICITY   = .00012667
INCLINATION    = 53.1596
RA_OF_ASC_NODE = 283.5210
ARG_OF_PERICENTER = 107.4271
MEAN_ANOMALY   = 213.9004

EPHEMERIS_TYPE = 0
CLASSIFICATION_TYPE = U
NORAD_CAT_ID   = 66113
ELEMENT_SET_NO = 999
REV_AT_EPOCH   = 524
BSTAR          = -.35456776E-1
MEAN_MOTION_DOT = -.1976697E-1
MEAN_MOTION_DDOT = 0

CCSDS_OMM_VERS = 2.0
CREATION_DATE  = 
ORIGINATOR     = 

OBJECT_NAME    = STARLINK-35496
OBJECT_ID      = 2025-237A
CENTER_NAME    = EARTH
REF_FRAME      = TEME
TIME_SYSTEM    = UTC
MEAN_ELEMENT_THEORY = SGP/SGP4

EPOCH          = 2025-11-13T22:00:03.000096
MEAN_MOTION    = 15.49315031
ECCENTRICITY   = .00010311
INCLINATION    = 53.1599
RA_OF_ASC_NODE = 223.5733
ARG_OF_PERICENTER = 91.2182
MEAN_ANOMALY   = 60.9445

EPHEMERIS_TYPE = 0
CLASSIFICATION_TYPE = U
NORAD_CAT_ID   = 66114
ELEMENT_SET_NO = 999
REV_AT_EPOCH   = 484
BSTAR          = -.56747014E-3
MEAN_MOTION_DOT = -.31886E-3
MEAN_MOTION_DDOT = 0

CCSDS_OMM_VERS = 2.0
CREATION_DATE  = 
ORIGINATOR     = 

OBJECT_NAME    = STARLINK-35428
OBJECT_ID      = 2025-237B
CENTER_NAME    = EARTH
REF_FRAME      = TEME
TIME_SYSTEM    = UTC
MEAN_ELEMENT_THEORY = SGP/SGP4

EPOCH          = 2025-11-13T22:00:03.000096
MEAN_MOTION    = 15.49334368
ECCENTRICITY   = .00011136
INCLINATION    = 53.1599
RA_OF_ASC_NODE = 223.5693
ARG_OF_PERICENTER = 99.8706
MEAN_ANOMALY   = 54.2206

EPHEMERIS_TYPE = 0
CLASSIFICATION_TYPE = U
NORAD_CAT_ID   = 66115
ELEMENT_SET_NO = 999
REV_AT_EPOCH   = 484
BSTAR          = -.76049555E-3
MEAN_MOTION_DOT = -.42552E-3
MEAN_MOTION_DDOT = 0

CCSDS_OMM_VERS = 2.0
CREATION_DATE  = 
ORIGINATOR     = 

OBJECT_NAME    = STARLINK-35573
OBJECT_ID      = 2025-237C
CENTER_NAME    = EARTH
REF_FRAME      = TEME
TIME_SYSTEM    = UTC
MEAN_ELEMENT_THEORY = SGP/SGP4

EPOCH          = 2025-11-13T22:00:03.000096
MEAN_MOTION    = 15.49318744
ECCENTRICITY   = .00009034
INCLINATION    = 53.1598
RA_OF_ASC_NODE = 223.5655
ARG_OF_PERICENTER = 69.2214
MEAN_ANOMALY   = 86.8707

EPHEMERIS_TYPE = 0
CLASSIFICATION_TYPE = U
NORAD_CAT_ID   = 66116
ELEMENT_SET_NO = 999
REV_AT_EPOCH   = 484
BSTAR          = -.22569006E-2
MEAN_MOTION_DOT = -.124037E-2
MEAN_MOTION_DDOT = 0

CCSDS_OMM_VERS = 2.0
CREATION_DATE  = 
ORIGINATOR     = 

OBJECT_NAME    = STARLINK-35572
OBJECT_ID      = 2025-237D
CENTER_NAME    = EARTH
REF_FRAME      = TEME
TIME_SYSTEM    = UTC
MEAN_ELEMENT_THEORY = SGP/SGP4

EPOCH          = 2025-11-13T22:00:03.000096
MEAN_MOTION    = 15.49393263
ECCENTRICITY   = .00012917
INCLINATION    = 53.1599
RA_OF_ASC_NODE = 223.5579
ARG_OF_PERICENTER = 84.1491
MEAN_ANOMALY   = 75.6816

EPHEMERIS_TYPE = 0
CLASSIFICATION_TYPE = U
NORAD_CAT_ID   = 66117
ELEMENT_SET_NO = 999
REV_AT_EPOCH   = 484
BSTAR          = -.29410577E-2
MEAN_MOTION_DOT = -.161171E-2
MEAN_MOTION_DDOT = 0

CCSDS_OMM_VERS = 2.0
CREATION_DATE  = 
ORIGINATOR     = 

OBJECT_NAME    = STARLINK-35468
OBJECT_ID      = 2025-237E
CENTER_NAME    = EARTH
REF_FRAME      = TEME
TIME_SYSTEM    = UTC
MEAN_ELEMENT_THEORY = SGP/SGP4

EPOCH          = 2025-11-13T22:00:03.000096
MEAN_MOTION    = 15.48991235
ECCENTRICITY   = .00012617
INCLINATION    = 53.1597
RA_OF_ASC_NODE = 223.5618
ARG_OF_PERICENTER = 75.8074
MEAN_ANOMALY   = 82.0715

EPHEMERIS_TYPE = 0
CLASSIFICATION_TYPE = U
NORAD_CAT_ID   = 66118
ELEMENT_SET_NO = 999
REV_AT_EPOCH   = 484
BSTAR          = -.42694147E-1
MEAN_MOTION_DOT = -.2086524E-1
MEAN_MOTION_DDOT = 0

