STARLINK-35593          
1 66107U 25236X   25317.91670139 -.01987465  00000+0 -35664-1 0  9998
2 66107  53.1596 283.5414 0001345 110.4785 201.2624 15.52481471  5243
STARLINK-35590          
1 66108U 25236Y   25317.91670139 -.01979041  00000+0 -35500-1 0  9999
2 66108  53.1596 283.5329 0001348 102.1047 213.4699 15.52478457  5181
STARLINK-35545          
1 66109U 25236Z   25317.91670139 -.01990590  00000+0 -35724-1 0  9990
2 66109  53.1595 283.5372 0001319 106.1458 207.5106 15.52483824  5245
STARLINK-35427          
1 66110U 25236AA  25317.91670139 -.01980304  00000+0 -35525-1 0  9993
2 66110  53.1594 283.5284 0001331 107.1268 210.3658 15.52478111  5249
STARLINK-35574          
1 66111U 25236AB  25317.91670139 -.01980669  00000+0 -35533-1 0  9997
2 66111  53.1594 283.5248 0001310 102.4370 216.9721 15.52478388  5181
STARLINK-35531          
1 66112U 25236AC  25317.91670139 -.02014205  00000+0 -36186-1 0  9998
2 66112  53.1600 283.5168 0001282 110.2685 212.9711 15.52493651  5247
STARLINK-35491          
1 66113U 25236AD  25317.91670139 -.01976697  00000+0 -35457-1 0  9990
2 66113  53.1596 283.5210 0001266 107.4271 213.9004 15.52475936  5243
STARLINK-35496          
1 66114U 25237A   25317.91670139 -.00031886  00000+0 -56747-3 0  9990
2 66114  53.1599 223.5733 0001031  91.2182  60.9445 15.49315031  4841
STARLINK-35428          
1 66115U 25237B   25317.91670139 -.00042552  00000+0 -76050-3 0  9992
2 66115  53.1599 223.5693 0001113  99.8706  54.2206 15.49334368  4849
STARLINK-35573          
1 66116U 25237C   25317.91670139 -.00124037  00000+0 -22569-2 0  9997
2 66116  53.1598 223.5655 0000903  69.2214  86.8707 15.49318744  4845
STARLINK-35572          
1 66117U 25237D   25317.91670139 -.00161171  00000+0 -29411-2 0  9991
2 66117  53.1599 223.5579 0001291  84.1491  75.6816 15.49393263  4842
STARLINK-35468          
1 66118U 25237E   25317.91670139 -.02086524  00000+0 -42694-1 0  9999
2 66118  53.1597 223.5618 0001261  75.8074  82.0715 15.48991235  4848
